   1880.0000      4963.97799006    5082.50137358    4229.80096772  -4.708429998647   4.776276349531   2.294278019842
   1900.0000     -1964.20004664    8045.92829735    4931.17147596  -5.965947763043   0.182373984619  -0.955170845522
   1920.0000     -7911.56806042    5983.68572189    2501.72744635  -3.535860373454  -3.347981903053  -2.839288905480
   1940.0000     -9715.75127852     769.98376672   -1252.38911544   0.757498585843  -4.963836141692  -3.124965366129
   1960.0000     -5794.45121382   -4737.48686763   -4160.96391410   5.713068631587  -3.550818337683  -1.296119499094
   1980.0000      2660.91292787   -5816.42483886   -3333.10764771   7.070145960787   2.448062717212   2.895170210516
   2000.0000      7167.49852965     480.93037207    1622.89623229  -0.476264750866   6.614291092798   4.256861464122
   2020.0000      2722.32351039    6758.50774077    4931.46093739  -5.769690273353   3.176250345634   1.028747275620
   2040.0000     -4378.73676993    7821.37209910    4326.81464528  -5.399271616280  -1.236547749629  -1.803061441295
   2060.0000     -9126.64220800    4398.23338528    1206.00773347  -2.184817866470  -4.167568527359  -3.137451474822
   2080.0000     -9025.16839975   -1318.68187133   -2528.29468912   2.521659006954  -4.910459746501  -2.757258032221
   2100.0000     -3092.98097859   -5922.18096003   -4453.41132758   7.017632904977  -1.965635889267   0.008073412865
   2120.0000      5280.80730520   -4273.89992962   -1822.09916174   5.166825774478   4.838952768166   4.132471403646
   2140.0000      6374.31957582    3142.70089038    3243.44491861  -3.135145530069   5.927797553965   3.303887495504
   2160.0000       190.19796988    7746.96653614    5110.00675412  -6.112325142013   1.527008183521  -0.139152357882
   2180.0000     -6479.96010090    7039.30429352    3399.69399769  -4.497693815227  -2.466719162292  -2.457999126130
   2200.0000     -9730.29261014    2520.77239080    -171.69726743  -0.649815506241  -4.728197731939  -3.220605034643
   2220.0000     -7583.93313030   -3296.04038516   -3581.60730099   4.298900604344  -4.413585826391  -2.084505298827
   2240.0000         9.28778474   -6308.23940751   -4126.88808280   7.551369344214   0.241065308155   1.580228478540
   2260.0000      6851.69534451   -1890.96300001      55.78947080   2.209379044257   6.342690057709   4.571612749399
   2280.0000      4638.62698897    5362.35347824    4385.77467004  -4.927811585993   4.573631178002   2.060968781560
   2300.0000     -2364.80100410    8059.52221336    4822.81298917  -5.902581130160  -0.030201482227  -1.140980380312
   2320.0000     -8141.79354481    5783.56886044    2233.50608092  -3.331164605367  -3.485618540143  -2.915650334766
   2340.0000     -9653.47182714     468.73540186   -1534.23651681   1.028945736607  -4.985378820658  -3.066168029395
   2360.0000     -5417.86249062   -4954.38705093   -4274.06032054   5.930636671885  -3.369910943233  -1.070613351438
   2380.0000      3090.06706479   -5677.35777620   -3117.91799011   6.861465406934   2.809581210660   3.153764256518
   2400.0000      7106.86121589     863.16554345    1929.41830976  -0.924419772461   6.590693845163   4.132119718534
   2420.0000      2330.69512273    6947.29952356    4986.97564142  -5.868273311265   2.948773195980   0.795928184740
   2440.0000     -4738.86064675    7750.19415644    4146.28778367  -5.274740073266  -1.427344770609  -1.952813677250
   2460.0000     -9263.21086964    4147.21242568     914.53686042  -1.949179466227  -4.270815566168  -3.168840210769
   2480.0000     -8847.05183126   -1617.54289822   -2772.89385912   2.795705821506  -4.874003781034  -2.641855552608
   2500.0000     -2642.71731974   -6044.26352263   -4458.85744581   7.141351187275  -1.693298712563   0.283933281075
   2520.0000      5579.55640116   -3995.61396790   -1518.82108966   4.767927482844   5.123185300953   4.276837354501
   2540.0000      6147.43571634    3487.61406657    3477.13671616  -3.468142387788   5.781774775416   3.096001503420
   2560.0000      -221.53276953    7840.23939964    5069.96269089  -6.113419359257   1.300997189275  -0.350693620586
   2580.0000     -6776.62696251    6893.45622076    3163.27761146  -4.325272107143  -2.630923643943  -2.567946380726
   2600.0000     -9761.89168534    2234.39487214    -466.33702544  -0.391364673617  -4.791093845588  -3.203501031441
   2620.0000     -7293.01398745   -3565.40272627   -3763.93564012   4.555275974397  -4.305495616499  -1.908904806887
   2640.0000       480.35558448   -6299.32741298   -4009.62868609   7.517513901889   0.588175815667   1.872650522383
   2660.0000      6959.85330757   -1525.25643151     387.45558613   1.726937409271   6.465941556558   4.559326824442
   2680.0000      4299.69943652    5631.40451941    4523.13941936  -5.127194962304   4.364682800039   1.823950166176
   2700.0000     -2760.11387852    8060.98302432    4698.67406002  -5.827889576732  -0.240902788720  -1.320621348504
   2720.0000     -8356.96478076    5574.95820769    1958.92558098  -3.121016912259  -3.619208848160  -2.982878281272
   2740.0000     -9572.50188420     165.53077827   -1810.35409625   1.300681639160  -4.999631525982  -2.996482731932
   2760.0000     -5028.28099507   -5161.16119598   -4368.46036662   6.136074298701  -3.176208264040  -0.835768692567
   2780.0000      3503.96411729   -5517.44855192   -2884.00467169   6.621939543611   3.167930706604   3.397259223478
   2800.0000      7017.93000716    1244.73577772    2226.00903602  -1.359010252350   6.546884461423   3.987464782347
   2820.0000      1933.39259902    7123.65171149    5023.46254557  -5.949705900090   2.719454164665   0.564597967478
   2840.0000     -5089.42436969    7667.83628853    3952.92998867  -5.141332214485  -1.615382809883  -2.095020442118
   2860.0000     -9382.77974067    3889.53791474     620.78837020  -1.709755288833  -4.369157109770  -3.190394520463
   2880.0000     -8650.73082219   -1914.93811525   -3007.03603443   3.067165126542  -4.828384068443  -2.515322835722
# Looking for sat 06251
# Satellite ID = 6251
# Epoch year = 2006 day = 176.82412014
# Eccentricity = 0.0030035
# Equatorial inclination = 58.0579 deg
# Argument of perigee = 139.1568 deg
# Mean anomaly = 221.1854 deg
# Right Ascension of Ascending Node = 54.0425 deg
# Mean Motion (number of rev/day) = 15.56387291
# BSTAR drag = 1.2808e-04
# Orbit number = 677
# SGP4 normal
# Satellite number
06251
#     Tsince         X                Y                Z            Xdot             Ydot             Zdot
  -1440.0000     -4480.28692681   -4485.67195424    2332.75371148   1.506600199207  -4.628459252860  -5.960721257377
  -1420.0000       374.36248469   -4917.34632330   -4657.91227433   5.286768578759   4.001638334209  -3.835438528651
  -1400.0000      4666.15767683    2400.78375457   -4326.96828900   0.748880013391   6.277718539473   4.290174167897
  -1380.0000      1662.38597928    5957.35882020    2778.96428940  -4.977362752761  -1.297532546764   5.684977714862
  -1360.0000     -3944.66069091     132.72000831    5478.28772254  -2.877339747069  -6.873360632168  -1.915382908830
  -1340.0000     -3285.16269323   -5889.04609987    -534.64022693   3.800137222087  -1.557226506121  -6.497454920612
  -1320.0000      2594.14649283   -2584.32054575   -5722.17357442   4.445914662171   6.169750662873  -0.793469930853
  -1300.0000      4425.84115643    4784.97752217   -1932.24210210  -1.874800375724   4.185430837126   6.119722324226
  -1280.0000      -671.61778234    4644.97103335    4874.86677317  -5.283554509891  -4.396813968992   3.421509175971
  -1260.0000     -4692.52283500   -2822.92899387    3949.60847384  -0.341304876062  -6.064630953380  -4.727617714802
  -1240.0000     -1256.15765577   -5802.57517669   -3265.65032290   5.145095675029   1.878647446790  -5.370859663629
  -1220.0000      4187.59296515     380.60652373   -5344.02317534   2.505923985692   6.793561313380   2.435889044527
  -1200.0000      3087.96792581    5971.15864571     950.09605835  -4.061067509544   1.051060920527   6.407470688381
  -1180.0000     -2852.42837257    2172.21235583    5726.19567358  -4.268127484916  -6.388822579243   0.275860243961
  -1160.0000     -4261.79605424   -5053.04811012    1405.22074540   2.299870478101  -3.724616830020  -6.326786144172
  -1140.0000      1100.48490268   -4262.72725605   -5165.46710464   5.208763795219   4.808214708412  -2.888731359783
  -1120.0000      4758.53265229    3239.75994312   -3621.53462591  -0.065040739817   5.733741082896   5.051914990974
  -1100.0000       973.47054724    5663.27975596    3590.88381759  -5.258270617464  -2.346388957837   5.067668410072
  -1080.0000     -4330.75434933    -837.36165202    5110.99474470  -2.169060898750  -6.768156431832  -2.950658843996
  -1060.0000     -2753.88709795   -5997.61706645   -1500.69325205   4.373082980559  -0.460015450431  -6.299026045637
  -1040.0000      3199.95319358   -1668.20424194   -5758.80547036   3.983755249646   6.515458875322   0.307062373645
  -1020.0000      4157.29414751    5284.70358557    -986.75912840  -2.644628805148   3.251833703151   6.400533195279
  -1000.0000     -1397.58876189    3938.85426105    5316.79750669  -5.151803187537  -5.153673399732   2.430441294443
   -980.0000     -4727.40051203   -3623.18388939    3183.01525924   0.495893881514  -5.436010137229  -5.426408346957
   -960.0000      -544.48958396   -5429.50464564   -4023.33197380   5.353597863277   2.887987967253  -4.664803876690
   -940.0000      4522.94156314    1329.21917297   -4901.97924131   1.771168285034   6.599500421926   3.416742917167
   -920.0000      2520.83252607    6007.02957181    1897.11554462  -4.594308102472  -0.040956566008   6.132164453984
   -900.0000     -3433.37481496    1232.17810753    5683.86535384  -3.750735011290  -6.662059147040  -0.837468163183
   -880.0000     -3933.64078021   -5481.56919189     436.18828686   3.053007960916  -2.735281723844  -6.507067929127
   -860.0000      1815.60889498   -3506.70865945   -5524.01562595   5.003445140816   5.479844023668  -1.860495266188
